[{"OBJECT_NAME":"STARLINK-31799","OBJECT_ID":"2024-082X","EPOCH":"2026-03-09T03:47:01.832640","MEAN_MOTION":15.27580305,"ECCENTRICITY":7.961e-5,"INCLINATION":42.9989,"RA_OF_ASC_NODE":132.1385,"ARG_OF_PERICENTER":178.3578,"MEAN_ANOMALY":181.7277,"EPHEMERIS_TYPE":0,"CLASSIFICATION_TYPE":"U","NORAD_CAT_ID":59652,"ELEMENT_SET_NO":999,"REV_AT_EPOCH":10490,"BSTAR":-7.0326657e-5,"MEAN_MOTION_DOT":-2.196e-5,"MEAN_MOTION_DDOT":0},{"OBJECT_NAME":"CZ-2C R\/B","OBJECT_ID":"2017-085D","EPOCH":"2026-03-09T07:36:19.955232","MEAN_MOTION":15.36259494,"ECCENTRICITY":0.00550258,"INCLINATION":34.6583,"RA_OF_ASC_NODE":163.0948,"ARG_OF_PERICENTER":204.4819,"MEAN_ANOMALY":155.3278,"EPHEMERIS_TYPE":0,"CLASSIFICATION_TYPE":"U","NORAD_CAT_ID":43084,"ELEMENT_SET_NO":999,"REV_AT_EPOCH":45326,"BSTAR":0.00049058122,"MEAN_MOTION_DOT":0.00018774,"MEAN_MOTION_DDOT":0}]
